STARLINK-2580_new
1 18279C 21036D   21326.14947029 -.00015075  00000-0 -10099-2 0  3267
2 18279  53.0526 228.0578 0001720  56.2432  42.0906 15.06416445    15
STARLINK-2580_old
1 28279C 21036D   21325.08471423 -.00036314  00000-0 -24324-2 0  3253
2 28279  53.0467 232.8385 0001572  58.6650  22.1939 15.06444324    13
